STARLINK-31496          
1 59211U 24046L   26068.46451435 -.00000153  00000+0  69601-5 0  9994
2 59211  53.1612 143.7061 0001181 111.8504 248.2622 15.30184886113185
NUSHSAT1                
1 63211U 25052B   26068.64700493  .00023034  00000+0  74857-3 0  9997
2 63211  97.4095 325.7239 0005501  84.7512 275.4357 15.31903202 54882
